STARLINK-36899          
1 68058U 26041U   26078.25002315 -.00020160  00000+0 -12760-3 0  9990
2 68058  53.1605  14.2081 0001143  79.0152 174.2706 15.75247552  3911
STARLINK-36917          
1 68059U 26041V   26078.25002315  .00117190  00000+0  76049-3 0  9999
2 68059  53.1596  14.0991 0001408  67.6670 238.9723 15.75166643  3919
STARLINK-36959          
1 68060U 26041W   26078.25002315  .00014242  00000+0  96943-4 0  9991
2 68060  53.1598  14.1546 0001134  72.1419 206.9007 15.75233928  3919
STARLINK-36915          
1 68061U 26041X   26078.25487393  .00158378  00000+0  78929-3 0  9997
2 68061  53.1595  14.0193 0001269  53.7698 306.3442 15.80928770  2736
STARLINK-36952          
1 68062U 26041Y   26078.20507415  .00141104  00000+0  90807-3 0  9999
2 68062  53.1606  14.4263 0000987 124.0069 236.1045 15.75272074  2723
STARLINK-37000          
1 68063U 26041Z   26078.12693475  .00277600  00000+0  13601-2 0  9990
2 68063  53.1597  14.6425 0001164  85.6980 274.4176 15.80955200  2711
STARLINK-36996          
1 68064U 26041AA  26078.25262541  .00235577  00000+0  11616-2 0  9992
2 68064  53.1592  14.0039 0001608  43.9740 316.1410 15.80932843  2731
STARLINK-36836          
1 68065U 26041AB  26078.12468599  .00211918  00000+0  10485-2 0  9996
2 68065  53.1596  14.6273 0001095  82.6962 277.4186 15.80926959  2716
STARLINK-36976          
1 68066U 26041AC  26078.25002315  .00008006  00000+0  56357-4 0  9993
2 68066  53.1596  14.1014 0001058  83.9468 220.8490 15.75234724  3918
STARLINK-36929          
1 68067U 26041AD  26078.25002315 -.00017711  00000+0 -11162-3 0  9993
2 68067  53.1600  14.1503 0001099  69.4665 211.4468 15.75236496  3910
STARLINK-36990          
1 68068U 26041AE  26078.18640449  .00156752  00000+0  78161-3 0  9991
2 68068  53.1597  14.3000 0000806  67.5815 292.5293 15.80922350  2722
STARLINK-36766          
1 68069U 26042A   26078.25002315  .00057753  00000+0  29456-3 0  9999
2 68069  53.1593 146.8667 0001331  82.7558 320.9459 15.80845131  3571
STARLINK-36823          
1 68070U 26042B   26078.25002315  .00058981  00000+0  30058-3 0  9995
2 68070  53.1590 146.8577 0001236  98.8944 309.0728 15.80854259  3579
STARLINK-36970          
1 68071U 26042C   26078.25002315  .00052680  00000+0  26906-3 0  9993
2 68071  53.1589 146.8400 0001261  85.5470 330.9674 15.80853118  3585
STARLINK-36972          
1 68072U 26042D   26078.25002315  .00083495  00000+0  42316-3 0  9995
2 68072  53.1591 146.8490 0001193  93.2186 319.0242 15.80838132  3580
STARLINK-37074          
1 68073U 26042E   26078.25002315  .00145404  00000+0  72777-3 0  9999
2 68073  53.1590 146.8314 0001154  86.8211 333.9609 15.80876495  3585
