[{"OBJECT_NAME":"STARLINK-36899","OBJECT_ID":"2026-041U","EPOCH":"2026-03-19T06:00:02.000160","MEAN_MOTION":15.75247552,"ECCENTRICITY":0.00011438,"INCLINATION":53.1605,"RA_OF_ASC_NODE":14.2081,"ARG_OF_PERICENTER":79.0152,"MEAN_ANOMALY":174.2706,"EPHEMERIS_TYPE":0,"CLASSIFICATION_TYPE":"U","NORAD_CAT_ID":68058,"ELEMENT_SET_NO":999,"REV_AT_EPOCH":391,"BSTAR":-0.00012760244,"MEAN_MOTION_DOT":-0.0002016,"MEAN_MOTION_DDOT":0},{"OBJECT_NAME":"STARLINK-36917","OBJECT_ID":"2026-041V","EPOCH":"2026-03-19T06:00:02.000160","MEAN_MOTION":15.75166643,"ECCENTRICITY":0.00014088,"INCLINATION":53.1596,"RA_OF_ASC_NODE":14.0991,"ARG_OF_PERICENTER":67.667,"MEAN_ANOMALY":238.9723,"EPHEMERIS_TYPE":0,"CLASSIFICATION_TYPE":"U","NORAD_CAT_ID":68059,"ELEMENT_SET_NO":999,"REV_AT_EPOCH":391,"BSTAR":0.00076048873,"MEAN_MOTION_DOT":0.0011719,"MEAN_MOTION_DDOT":0},{"OBJECT_NAME":"STARLINK-36959","OBJECT_ID":"2026-041W","EPOCH":"2026-03-19T06:00:02.000160","MEAN_MOTION":15.75233928,"ECCENTRICITY":0.00011347,"INCLINATION":53.1598,"RA_OF_ASC_NODE":14.1546,"ARG_OF_PERICENTER":72.1419,"MEAN_ANOMALY":206.9007,"EPHEMERIS_TYPE":0,"CLASSIFICATION_TYPE":"U","NORAD_CAT_ID":68060,"ELEMENT_SET_NO":999,"REV_AT_EPOCH":391,"BSTAR":9.6942545e-5,"MEAN_MOTION_DOT":0.00014242,"MEAN_MOTION_DDOT":0},{"OBJECT_NAME":"STARLINK-36915","OBJECT_ID":"2026-041X","EPOCH":"2026-03-19T06:07:01.107552","MEAN_MOTION":15.8092877,"ECCENTRICITY":0.00012694,"INCLINATION":53.1595,"RA_OF_ASC_NODE":14.0193,"ARG_OF_PERICENTER":53.7698,"MEAN_ANOMALY":306.3442,"EPHEMERIS_TYPE":0,"CLASSIFICATION_TYPE":"U","NORAD_CAT_ID":68061,"ELEMENT_SET_NO":999,"REV_AT_EPOCH":273,"BSTAR":0.00078929403,"MEAN_MOTION_DOT":0.00158378,"MEAN_MOTION_DDOT":0},{"OBJECT_NAME":"STARLINK-36952","OBJECT_ID":"2026-041Y","EPOCH":"2026-03-19T04:55:18.406560","MEAN_MOTION":15.75272074,"ECCENTRICITY":9.873e-5,"INCLINATION":53.1606,"RA_OF_ASC_NODE":14.4263,"ARG_OF_PERICENTER":124.0069,"MEAN_ANOMALY":236.1045,"EPHEMERIS_TYPE":0,"CLASSIFICATION_TYPE":"U","NORAD_CAT_ID":68062,"ELEMENT_SET_NO":999,"REV_AT_EPOCH":272,"BSTAR":0.00090807016,"MEAN_MOTION_DOT":0.00141104,"MEAN_MOTION_DDOT":0},{"OBJECT_NAME":"STARLINK-37000","OBJECT_ID":"2026-041Z","EPOCH":"2026-03-19T03:02:47.162400","MEAN_MOTION":15.809552,"ECCENTRICITY":0.00011649,"INCLINATION":53.1597,"RA_OF_ASC_NODE":14.6425,"ARG_OF_PERICENTER":85.698,"MEAN_ANOMALY":274.4176,"EPHEMERIS_TYPE":0,"CLASSIFICATION_TYPE":"U","NORAD_CAT_ID":68063,"ELEMENT_SET_NO":999,"REV_AT_EPOCH":271,"BSTAR":0.0013601049,"MEAN_MOTION_DOT":0.002776,"MEAN_MOTION_DDOT":0},{"OBJECT_NAME":"STARLINK-36996","OBJECT_ID":"2026-041AA","EPOCH":"2026-03-19T06:03:46.835424","MEAN_MOTION":15.80932843,"ECCENTRICITY":0.00016083,"INCLINATION":53.1592,"RA_OF_ASC_NODE":14.0039,"ARG_OF_PERICENTER":43.974,"MEAN_ANOMALY":316.141,"EPHEMERIS_TYPE":0,"CLASSIFICATION_TYPE":"U","NORAD_CAT_ID":68064,"ELEMENT_SET_NO":999,"REV_AT_EPOCH":273,"BSTAR":0.0011616066,"MEAN_MOTION_DOT":0.00235577,"MEAN_MOTION_DDOT":0},{"OBJECT_NAME":"STARLINK-36836","OBJECT_ID":"2026-041AB","EPOCH":"2026-03-19T02:59:32.869536","MEAN_MOTION":15.80926959,"ECCENTRICITY":0.00010952,"INCLINATION":53.1596,"RA_OF_ASC_NODE":14.6273,"ARG_OF_PERICENTER":82.6962,"MEAN_ANOMALY":277.4186,"EPHEMERIS_TYPE":0,"CLASSIFICATION_TYPE":"U","NORAD_CAT_ID":68065,"ELEMENT_SET_NO":999,"REV_AT_EPOCH":271,"BSTAR":0.0010484724,"MEAN_MOTION_DOT":0.00211918,"MEAN_MOTION_DDOT":0},{"OBJECT_NAME":"STARLINK-36976","OBJECT_ID":"2026-041AC","EPOCH":"2026-03-19T06:00:02.000160","MEAN_MOTION":15.75234724,"ECCENTRICITY":0.00010583,"INCLINATION":53.1596,"RA_OF_ASC_NODE":14.1014,"ARG_OF_PERICENTER":83.9468,"MEAN_ANOMALY":220.849,"EPHEMERIS_TYPE":0,"CLASSIFICATION_TYPE":"U","NORAD_CAT_ID":68066,"ELEMENT_SET_NO":999,"REV_AT_EPOCH":391,"BSTAR":5.635686e-5,"MEAN_MOTION_DOT":8.006e-5,"MEAN_MOTION_DDOT":0},{"OBJECT_NAME":"STARLINK-36929","OBJECT_ID":"2026-041AD","EPOCH":"2026-03-19T06:00:02.000160","MEAN_MOTION":15.75236496,"ECCENTRICITY":0.00010991,"INCLINATION":53.16,"RA_OF_ASC_NODE":14.1503,"ARG_OF_PERICENTER":69.4665,"MEAN_ANOMALY":211.4468,"EPHEMERIS_TYPE":0,"CLASSIFICATION_TYPE":"U","NORAD_CAT_ID":68067,"ELEMENT_SET_NO":999,"REV_AT_EPOCH":391,"BSTAR":-0.00011162149,"MEAN_MOTION_DOT":-0.00017711,"MEAN_MOTION_DDOT":0},{"OBJECT_NAME":"STARLINK-36990","OBJECT_ID":"2026-041AE","EPOCH":"2026-03-19T04:28:25.347936","MEAN_MOTION":15.8092235,"ECCENTRICITY":8.064e-5,"INCLINATION":53.1597,"RA_OF_ASC_NODE":14.3,"ARG_OF_PERICENTER":67.5815,"MEAN_ANOMALY":292.5293,"EPHEMERIS_TYPE":0,"CLASSIFICATION_TYPE":"U","NORAD_CAT_ID":68068,"ELEMENT_SET_NO":999,"REV_AT_EPOCH":272,"BSTAR":0.00078160847,"MEAN_MOTION_DOT":0.00156752,"MEAN_MOTION_DDOT":0},{"OBJECT_NAME":"STARLINK-36766","OBJECT_ID":"2026-042A","EPOCH":"2026-03-19T06:00:02.000160","MEAN_MOTION":15.80845131,"ECCENTRICITY":0.00013317,"INCLINATION":53.1593,"RA_OF_ASC_NODE":146.8667,"ARG_OF_PERICENTER":82.7558,"MEAN_ANOMALY":320.9459,"EPHEMERIS_TYPE":0,"CLASSIFICATION_TYPE":"U","NORAD_CAT_ID":68069,"ELEMENT_SET_NO":999,"REV_AT_EPOCH":357,"BSTAR":0.000294564,"MEAN_MOTION_DOT":0.00057753,"MEAN_MOTION_DDOT":0},{"OBJECT_NAME":"STARLINK-36823","OBJECT_ID":"2026-042B","EPOCH":"2026-03-19T06:00:02.000160","MEAN_MOTION":15.80854259,"ECCENTRICITY":0.00012364,"INCLINATION":53.159,"RA_OF_ASC_NODE":146.8577,"ARG_OF_PERICENTER":98.8944,"MEAN_ANOMALY":309.0728,"EPHEMERIS_TYPE":0,"CLASSIFICATION_TYPE":"U","NORAD_CAT_ID":68070,"ELEMENT_SET_NO":999,"REV_AT_EPOCH":357,"BSTAR":0.00030058061,"MEAN_MOTION_DOT":0.00058981,"MEAN_MOTION_DDOT":0},{"OBJECT_NAME":"STARLINK-36970","OBJECT_ID":"2026-042C","EPOCH":"2026-03-19T06:00:02.000160","MEAN_MOTION":15.80853118,"ECCENTRICITY":0.00012613,"INCLINATION":53.1589,"RA_OF_ASC_NODE":146.84,"ARG_OF_PERICENTER":85.547,"MEAN_ANOMALY":330.9674,"EPHEMERIS_TYPE":0,"CLASSIFICATION_TYPE":"U","NORAD_CAT_ID":68071,"ELEMENT_SET_NO":999,"REV_AT_EPOCH":358,"BSTAR":0.00026905817,"MEAN_MOTION_DOT":0.0005268,"MEAN_MOTION_DDOT":0},{"OBJECT_NAME":"STARLINK-36972","OBJECT_ID":"2026-042D","EPOCH":"2026-03-19T06:00:02.000160","MEAN_MOTION":15.80838132,"ECCENTRICITY":0.00011931,"INCLINATION":53.1591,"RA_OF_ASC_NODE":146.849,"ARG_OF_PERICENTER":93.2186,"MEAN_ANOMALY":319.0242,"EPHEMERIS_TYPE":0,"CLASSIFICATION_TYPE":"U","NORAD_CAT_ID":68072,"ELEMENT_SET_NO":999,"REV_AT_EPOCH":358,"BSTAR":0.00042315877,"MEAN_MOTION_DOT":0.00083495,"MEAN_MOTION_DDOT":0},{"OBJECT_NAME":"STARLINK-37074","OBJECT_ID":"2026-042E","EPOCH":"2026-03-19T06:00:02.000160","MEAN_MOTION":15.80876495,"ECCENTRICITY":0.00011544,"INCLINATION":53.159,"RA_OF_ASC_NODE":146.8314,"ARG_OF_PERICENTER":86.8211,"MEAN_ANOMALY":333.9609,"EPHEMERIS_TYPE":0,"CLASSIFICATION_TYPE":"U","NORAD_CAT_ID":68073,"ELEMENT_SET_NO":999,"REV_AT_EPOCH":358,"BSTAR":0.00072776575,"MEAN_MOTION_DOT":0.00145404,"MEAN_MOTION_DDOT":0}]
